{
  "type": "FeatureCollection",
  "features": [
    {
      "type": "Feature",
      "properties": {
        "norad_id": 33651,
        "name": "FENGYUN 1C DEB",
        "group": "fengyun-1c-debris",
        "lat": 44.236257658322444,
        "lon": 18.117775144368828,
        "alt_km": 743.5238024162154,
        "timestamp": "2025-12-06T22:38:43.014967+00:00",
        "meta_object_name": "FENGYUN 1C DEB",
        "meta_object_id": "1999-025DEL",
        "meta_epoch": "2025-12-04T09:34:25.167360",
        "meta_mean_motion": 14.2034714,
        "meta_eccentricity": 0.0118053,
        "meta_inclination": 98.6575,
        "meta_ra_of_asc_node": 24.1579,
        "meta_arg_of_pericenter": 77.9387,
        "meta_mean_anomaly": 283.4991,
        "meta_ephemeris_type": 0,
        "meta_classification_type": "U",
        "meta_norad_cat_id": 33651,
        "meta_element_set_no": 999,
        "meta_rev_at_epoch": 64153,
        "meta_bstar": 0.00028899,
        "meta_mean_motion_dot": 6.21e-06,
        "meta_mean_motion_ddot": 0,
        "tle_line1": "1 33651U 99025DEL 25338.39890240  .00000621  00000+0  28899-3 0  9996",
        "tle_line2": "2 33651  98.6575  24.1579 0118053  77.9387 283.4991 14.20347140641538"
      },
      "geometry": {
        "type": "Point",
        "coordinates": [
          18.117775144368828,
          44.236257658322444
        ]
      }
    },
    {
      "type": "Feature",
      "properties": {
        "norad_id": 33655,
        "name": "FENGYUN 1C DEB",
        "group": "fengyun-1c-debris",
        "lat": -66.60456007310887,
        "lon": 66.46296490008382,
        "alt_km": 579.8483875271068,
        "timestamp": "2025-12-06T22:38:43.014977+00:00",
        "meta_object_name": "FENGYUN 1C DEB",
        "meta_object_id": "1999-025DEQ",
        "meta_epoch": "2025-12-05T03:38:43.803168",
        "meta_mean_motion": 14.97269099,
        "meta_eccentricity": 0.00479874,
        "meta_inclination": 98.8049,
        "meta_ra_of_asc_node": 43.4524,
        "meta_arg_of_pericenter": 24.086,
        "meta_mean_anomaly": 336.2588,
        "meta_ephemeris_type": 0,
        "meta_classification_type": "U",
        "meta_norad_cat_id": 33655,
        "meta_element_set_no": 999,
        "meta_rev_at_epoch": 96444,
        "meta_bstar": 0.0036430798,
        "meta_mean_motion_dot": 0.00043384,
        "meta_mean_motion_ddot": 0,
        "tle_line1": "1 33655U 99025DEQ 25339.15189587  .00043384  00000+0  36431-2 0  9993",
        "tle_line2": "2 33655  98.8049  43.4524 0047987  24.0860 336.2588 14.97269099964447"
      },
      "geometry": {
        "type": "Point",
        "coordinates": [
          66.46296490008382,
          -66.60456007310887
        ]
      }
    },
    {
      "type": "Feature",
      "properties": {
        "norad_id": 33656,
        "name": "FENGYUN 1C DEB",
        "group": "fengyun-1c-debris",
        "lat": 9.480112784307872,
        "lon": 155.6026205328442,
        "alt_km": 852.4429344392129,
        "timestamp": "2025-12-06T22:38:43.014986+00:00",
        "meta_object_name": "FENGYUN 1C DEB",
        "meta_object_id": "1999-025DER",
        "meta_epoch": "2025-12-01T05:08:12.514272",
        "meta_mean_motion": 14.22694091,
        "meta_eccentricity": 0.0090964,
        "meta_inclination": 98.5782,
        "meta_ra_of_asc_node": 328.5792,
        "meta_arg_of_pericenter": 64.5541,
        "meta_mean_anomaly": 296.5016,
        "meta_ephemeris_type": 0,
        "meta_classification_type": "U",
        "meta_norad_cat_id": 33656,
        "meta_element_set_no": 999,
        "meta_rev_at_epoch": 62545,
        "meta_bstar": 0.00046353,
        "meta_mean_motion_dot": 1.041e-05,
        "meta_mean_motion_ddot": 0,
        "tle_line1": "1 33656U 99025DER 25335.21403373  .00001041  00000+0  46353-3 0  9998",
        "tle_line2": "2 33656  98.5782 328.5792 0090964  64.5541 296.5016 14.22694091625452"
      },
      "geometry": {
        "type": "Point",
        "coordinates": [
          155.6026205328442,
          9.480112784307872
        ]
      }
    },
    {
      "type": "Feature",
      "properties": {
        "norad_id": 33658,
        "name": "FENGYUN 1C DEB",
        "group": "fengyun-1c-debris",
        "lat": 54.17072301983423,
        "lon": 120.74157607899107,
        "alt_km": 1182.0150880186557,
        "timestamp": "2025-12-06T22:38:43.014996+00:00",
        "meta_object_name": "FENGYUN 1C DEB",
        "meta_object_id": "1999-025DET",
        "meta_epoch": "2025-12-05T16:23:39.025248",
        "meta_mean_motion": 13.62288737,
        "meta_eccentricity": 0.02839845,
        "meta_inclination": 99.5646,
        "meta_ra_of_asc_node": 133.0086,
        "meta_arg_of_pericenter": 199.1126,
        "meta_mean_anomaly": 159.9187,
        "meta_ephemeris_type": 0,
        "meta_classification_type": "U",
        "meta_norad_cat_id": 33658,
        "meta_element_set_no": 999,
        "meta_rev_at_epoch": 58043,
        "meta_bstar": 0.0066986269,
        "meta_mean_motion_dot": 6.756e-05,
        "meta_mean_motion_ddot": 0,
        "tle_line1": "1 33658U 99025DET 25339.68309057  .00006756  00000+0  66986-2 0  9990",
        "tle_line2": "2 33658  99.5646 133.0086 0283984 199.1126 159.9187 13.62288737580437"
      },
      "geometry": {
        "type": "Point",
        "coordinates": [
          120.74157607899107,
          54.17072301983423
        ]
      }
    },
    {
      "type": "Feature",
      "properties": {
        "norad_id": 33660,
        "name": "FENGYUN 1C DEB",
        "group": "fengyun-1c-debris",
        "lat": 62.88431556990955,
        "lon": 89.82159373431935,
        "alt_km": 982.9923433345957,
        "timestamp": "2025-12-06T22:38:43.015006+00:00",
        "meta_object_name": "FENGYUN 1C DEB",
        "meta_object_id": "1999-025DEV",
        "meta_epoch": "2025-12-06T14:03:05.079744",
        "meta_mean_motion": 13.91758126,
        "meta_eccentricity": 0.01099541,
        "meta_inclination": 98.6562,
        "meta_ra_of_asc_node": 252.1807,
        "meta_arg_of_pericenter": 263.2447,
        "meta_mean_anomaly": 220.1016,
        "meta_ephemeris_type": 0,
        "meta_classification_type": "U",
        "meta_norad_cat_id": 33660,
        "meta_element_set_no": 999,
        "meta_rev_at_epoch": 90978,
        "meta_bstar": 0.00094434732,
        "meta_mean_motion_dot": 1.22e-05,
        "meta_mean_motion_ddot": 0,
        "tle_line1": "1 33660U 99025DEV 25340.58547546  .00001220  00000+0  94435-3 0  9993",
        "tle_line2": "2 33660  98.6562 252.1807 0109954 263.2447 220.1016 13.91758126909785"
      },
      "geometry": {
        "type": "Point",
        "coordinates": [
          89.82159373431935,
          62.88431556990955
        ]
      }
    },
    {
      "type": "Feature",
      "properties": {
        "norad_id": 33663,
        "name": "FENGYUN 1C DEB",
        "group": "fengyun-1c-debris",
        "lat": 1.597421421799167,
        "lon": 151.9572465615154,
        "alt_km": 741.2977191340506,
        "timestamp": "2025-12-06T22:38:43.015017+00:00",
        "meta_object_name": "FENGYUN 1C DEB",
        "meta_object_id": "1999-025DEY",
        "meta_epoch": "2025-12-03T05:05:31.392960",
        "meta_mean_motion": 14.61049241,
        "meta_eccentricity": 0.0083574,
        "meta_inclination": 98.8831,
        "meta_ra_of_asc_node": 327.7042,
        "meta_arg_of_pericenter": 41.7093,
        "meta_mean_anomaly": 319.0438,
        "meta_ephemeris_type": 0,
        "meta_classification_type": "U",
        "meta_norad_cat_id": 33663,
        "meta_element_set_no": 999,
        "meta_rev_at_epoch": 64063,
        "meta_bstar": 0.0084154,
        "meta_mean_motion_dot": 0.00043621,
        "meta_mean_motion_ddot": 0,
        "tle_line1": "1 33663U 99025DEY 25337.21216890  .00043621  00000+0  84154-2 0  9994",
        "tle_line2": "2 33663  98.8831 327.7042 0083574  41.7093 319.0438 14.61049241640635"
      },
      "geometry": {
        "type": "Point",
        "coordinates": [
          151.9572465615154,
          1.597421421799167
        ]
      }
    },
    {
      "type": "Feature",
      "properties": {
        "norad_id": 33664,
        "name": "FENGYUN 1C DEB",
        "group": "fengyun-1c-debris",
        "lat": -7.493077922132387,
        "lon": -51.22464970067156,
        "alt_km": 961.130894869807,
        "timestamp": "2025-12-06T22:38:43.015027+00:00",
        "meta_object_name": "FENGYUN 1C DEB",
        "meta_object_id": "1999-025DEZ",
        "meta_epoch": "2025-12-02T03:10:30.773568",
        "meta_mean_motion": 14.03976749,
        "meta_eccentricity": 0.01640632,
        "meta_inclination": 98.7018,
        "meta_ra_of_asc_node": 125.3204,
        "meta_arg_of_pericenter": 69.7897,
        "meta_mean_anomaly": 292.0828,
        "meta_ephemeris_type": 0,
        "meta_classification_type": "U",
        "meta_norad_cat_id": 33664,
        "meta_element_set_no": 999,
        "meta_rev_at_epoch": 90590,
        "meta_bstar": 0.00053085125,
        "meta_mean_motion_dot": 9.05e-06,
        "meta_mean_motion_ddot": 0,
        "tle_line1": "1 33664U 99025DEZ 25336.13230062  .00000905  00000+0  53085-3 0  9990",
        "tle_line2": "2 33664  98.7018 125.3204 0164063  69.7897 292.0828 14.03976749905904"
      },
      "geometry": {
        "type": "Point",
        "coordinates": [
          -51.22464970067156,
          -7.493077922132387
        ]
      }
    }
  ]
}